start=new Date('2022-06-27T00:00:00.000Z').valueOf();
sats=[{"ELEMENT_SET_NO":"999","TLE_LINE2":"2 45061  53.0533 235.1260 0001484  70.0351 290.0798 15.06396557132715","COUNTRY_CODE":"US","FILE":"3503441","REF_FRAME":"TEME","LAUNCH_DATE":"2020-01-29","EPHEMERIS_TYPE":"0","CENTER_NAME":"EARTH","OBJECT_ID":"2020-006T","MEAN_MOTION_DDOT":"0.0000000000000","SEMIMAJOR_AXIS":"6925.359","REV_AT_EPOCH":"13271","RA_OF_ASC_NODE":"235.1260","BSTAR":"0.00006009800000","INCLINATION":"53.0533","RCS_SIZE":"LARGE","OBJECT_TYPE":"PAYLOAD","PERIOD":"95.592","MEAN_ANOMALY":"290.0798","ECCENTRICITY":"0.00014840","TIME_SYSTEM":"UTC","APOAPSIS":"548.252","OBJECT_NAME":"STARLINK-1169","EPOCH":"2022-06-26T21:08:54.897216","MEAN_MOTION":"15.06396557","GP_ID":"206923621","MEAN_MOTION_DOT":"0.00000614","NORAD_CAT_ID":"45061","DECAY_DATE":null,"SITE":"AFETR","PERIAPSIS":"546.196","ARG_OF_PERICENTER":"70.0351","TLE_LINE1":"1 45061U 20006T   22177.88119094  .00000614  00000-0  60098-4 0  9991","MEAN_ELEMENT_THEORY":"SGP4","CLASSIFICATION_TYPE":"U"},{"PERIOD":"95.592","MEAN_ANOMALY":"289.0723","RCS_SIZE":"LARGE","OBJECT_TYPE":"PAYLOAD","BSTAR":"0.00009836900000","INCLINATION":"53.0545","REV_AT_EPOCH":"13271","SEMIMAJOR_AXIS":"6925.346","RA_OF_ASC_NODE":"235.1888","MEAN_MOTION_DDOT":"0.0000000000000","CENTER_NAME":"EARTH","EPHEMERIS_TYPE":"0","OBJECT_ID":"2020-006U","REF_FRAME":"TEME","LAUNCH_DATE":"2020-01-29","ELEMENT_SET_NO":"999","COUNTRY_CODE":"US","TLE_LINE2":"2 45062  53.0545 235.1888 0001421  71.0420 289.0723 15.06400753132714","FILE":"3503441","CLASSIFICATION_TYPE":"U","MEAN_ELEMENT_THEORY":"SGP4","NORAD_CAT_ID":"45062","DECAY_DATE":null,"SITE":"AFETR","PERIAPSIS":"546.227","ARG_OF_PERICENTER":"71.0420","TLE_LINE1":"1 45062U 20006U   22177.86643676  .00001184  00000-0  98369-4 0  9993","GP_ID":"206923873","MEAN_MOTION_DOT":"0.00001184","EPOCH":"2022-06-26T20:47:40.136064","OBJECT_NAME":"STARLINK-1171","MEAN_MOTION":"15.06400753","ECCENTRICITY":"0.00014210","APOAPSIS":"548.195","TIME_SYSTEM":"UTC"},{"REV_AT_EPOCH":"13298","SEMIMAJOR_AXIS":"6925.373","RA_OF_ASC_NODE":"215.4388","INCLINATION":"53.0540","BSTAR":"0.00006484600000","RCS_SIZE":"LARGE","OBJECT_TYPE":"PAYLOAD","MEAN_ANOMALY":"286.3217","PERIOD":"95.593","ELEMENT_SET_NO":"999","FILE":"3503441","TLE_LINE2":"2 45064  53.0540 215.4388 0001515  73.7939 286.3217 15.06391959132989","COUNTRY_CODE":"US","LAUNCH_DATE":"2020-01-29","REF_FRAME":"TEME","OBJECT_ID":"2020-006W","CENTER_NAME":"EARTH","EPHEMERIS_TYPE":"0","MEAN_MOTION_DDOT":"0.0000000000000","GP_ID":"206924101","MEAN_MOTION_DOT":"0.00000684","PERIAPSIS":"546.189","SITE":"AFETR","ARG_OF_PERICENTER":"73.7939","TLE_LINE1":"1 45064U 20006W   22177.81299664  .00000684  00000-0  64846-4 0  9991","NORAD_CAT_ID":"45064","DECAY_DATE":null,"CLASSIFICATION_TYPE":"U","MEAN_ELEMENT_THEORY":"SGP4","ECCENTRICITY":"0.00015150","APOAPSIS":"548.287","TIME_SYSTEM":"UTC","OBJECT_NAME":"STARLINK-1133","EPOCH":"2022-06-26T19:30:42.909696","MEAN_MOTION":"15.06391959"},{"MEAN_MOTION_DDOT":"0.0000000000000","OBJECT_ID":"2020-006X","EPHEMERIS_TYPE":"0","CENTER_NAME":"EARTH","LAUNCH_DATE":"2020-01-29","REF_FRAME":"TEME","ELEMENT_SET_NO":"999","FILE":"3503441","TLE_LINE2":"2 45065  53.0537 215.4192 0001482  71.1997 288.9152 15.06398231132984","COUNTRY_CODE":"US","MEAN_ANOMALY":"288.9152","PERIOD":"95.592","RCS_SIZE":"LARGE","OBJECT_TYPE":"PAYLOAD","INCLINATION":"53.0537","BSTAR":"0.00012626000000","SEMIMAJOR_AXIS":"6925.354","REV_AT_EPOCH":"13298","RA_OF_ASC_NODE":"215.4192","OBJECT_NAME":"STARLINK-1139","EPOCH":"2022-06-26T19:36:01.082880","MEAN_MOTION":"15.06398231","ECCENTRICITY":"0.00014820","APOAPSIS":"548.245","TIME_SYSTEM":"UTC","MEAN_ELEMENT_THEORY":"SGP4","CLASSIFICATION_TYPE":"U","PERIAPSIS":"546.193","SITE":"AFETR","ARG_OF_PERICENTER":"71.1997","TLE_LINE1":"1 45065U 20006X   22177.81667920  .00001600  00000-0  12626-3 0  9993","DECAY_DATE":null,"NORAD_CAT_ID":"45065","GP_ID":"206923371","MEAN_MOTION_DOT":"0.00001600"},{"CLASSIFICATION_TYPE":"U","MEAN_ELEMENT_THEORY":"SGP4","DECAY_DATE":null,"NORAD_CAT_ID":"45066","TLE_LINE1":"1 45066U 20006Y   22177.52549663  .00001468  00000-0  11745-3 0  9998","ARG_OF_PERICENTER":"62.0054","SITE":"AFETR","PERIAPSIS":"546.166","MEAN_MOTION_DOT":"0.00001468","GP_ID":"206893291","MEAN_MOTION":"15.06392345","OBJECT_NAME":"STARLINK-1145","EPOCH":"2022-06-26T12:36:42.908832","TIME_SYSTEM":"UTC","APOAPSIS":"548.308","ECCENTRICITY":"0.00015460","PERIOD":"95.593","MEAN_ANOMALY":"298.1091","OBJECT_TYPE":"PAYLOAD","RCS_SIZE":"LARGE","BSTAR":"0.00011745000000","INCLINATION":"53.0528","RA_OF_ASC_NODE":"216.7171","SEMIMAJOR_AXIS":"6925.372","REV_AT_EPOCH":"13293","MEAN_MOTION_DDOT":"0.0000000000000","EPHEMERIS_TYPE":"0","CENTER_NAME":"EARTH","OBJECT_ID":"2020-006Y","REF_FRAME":"TEME","LAUNCH_DATE":"2020-01-29","FILE":"3503181","TLE_LINE2":"2 45066  53.0528 216.7171 0001546  62.0054 298.1091 15.06392345132930","COUNTRY_CODE":"US","ELEMENT_SET_NO":"999"},{"LAUNCH_DATE":"2020-01-29","REF_FRAME":"TEME","ELEMENT_SET_NO":"999","TLE_LINE2":"2 45067  53.0556 215.4616 0001368  72.8971 287.2168 15.06386436132984","COUNTRY_CODE":"US","FILE":"3503441","MEAN_MOTION_DDOT":"0.0000000000000","OBJECT_ID":"2020-006Z","EPHEMERIS_TYPE":"0","CENTER_NAME":"EARTH","INCLINATION":"53.0556","BSTAR":"0.00002709300000","REV_AT_EPOCH":"13298","SEMIMAJOR_AXIS":"6925.390","RA_OF_ASC_NODE":"215.4616","MEAN_ANOMALY":"287.2168","PERIOD":"95.593","RCS_SIZE":"LARGE","OBJECT_TYPE":"PAYLOAD","ECCENTRICITY":"0.00013680","TIME_SYSTEM":"UTC","APOAPSIS":"548.203","OBJECT_NAME":"STARLINK-1150","EPOCH":"2022-06-26T19:20:06.468288","MEAN_MOTION":"15.06386436","GP_ID":"206924373","MEAN_MOTION_DOT":"0.00000122","MEAN_ELEMENT_THEORY":"SGP4","CLASSIFICATION_TYPE":"U","SITE":"AFETR","ARG_OF_PERICENTER":"72.8971","PERIAPSIS":"546.308","TLE_LINE1":"1 45067U 20006Z   22177.80563042  .00000122  00000-0  27093-4 0  9997","NORAD_CAT_ID":"45067","DECAY_DATE":null},{"MEAN_MOTION_DDOT":"0.0000000000000","OBJECT_ID":"2020-006AA","EPHEMERIS_TYPE":"0","CENTER_NAME":"EARTH","LAUNCH_DATE":"2020-01-29","REF_FRAME":"TEME","TLE_LINE2":"2 45068  53.0562 217.2423 0001492  81.1650 278.9508 15.06395223132915","COUNTRY_CODE":"US","FILE":"3503181","ELEMENT_SET_NO":"999","MEAN_ANOMALY":"278.9508","PERIOD":"95.592","OBJECT_TYPE":"PAYLOAD","RCS_SIZE":"LARGE","INCLINATION":"53.0562","BSTAR":"-0.00005677900000","RA_OF_ASC_NODE":"217.2423","SEMIMAJOR_AXIS":"6925.363","REV_AT_EPOCH":"13291","MEAN_MOTION":"15.06395223","OBJECT_NAME":"STARLINK-1161","EPOCH":"2022-06-26T09:08:19.408416","APOAPSIS":"548.261","TIME_SYSTEM":"UTC","ECCENTRICITY":"0.00014920","MEAN_ELEMENT_THEORY":"SGP4","CLASSIFICATION_TYPE":"U","TLE_LINE1":"1 45068U 20006AA  22177.38078019 -.00001127  00000-0 -56779-4 0  9997","SITE":"AFETR","ARG_OF_PERICENTER":"81.1650","PERIAPSIS":"546.195","NORAD_CAT_ID":"45068","DECAY_DATE":null,"MEAN_MOTION_DOT":"-0.00001127","GP_ID":"206891790"},{"TIME_SYSTEM":"UTC","APOAPSIS":"548.150","ECCENTRICITY":"0.00013440","MEAN_MOTION":"15.06398084","EPOCH":"2022-06-26T20:07:51.703968","OBJECT_NAME":"STARLINK-1167","MEAN_MOTION_DOT":"0.00001530","GP_ID":"206922872","TLE_LINE1":"1 45071U 20006AD  22177.83879287  .00001530  00000-0  12159-3 0  9996","ARG_OF_PERICENTER":"64.1783","SITE":"AFETR","PERIAPSIS":"546.289","NORAD_CAT_ID":"45071","DECAY_DATE":null,"MEAN_ELEMENT_THEORY":"SGP4","CLASSIFICATION_TYPE":"U","TLE_LINE2":"2 45071  53.0526 215.3212 0001344  64.1783 295.9345 15.06398084132981","COUNTRY_CODE":"US","FILE":"3503441","ELEMENT_SET_NO":"999","LAUNCH_DATE":"2020-01-29","REF_FRAME":"TEME","OBJECT_ID":"2020-006AD","EPHEMERIS_TYPE":"0","CENTER_NAME":"EARTH","MEAN_MOTION_DDOT":"0.0000000000000","RA_OF_ASC_NODE":"215.3212","SEMIMAJOR_AXIS":"6925.354","REV_AT_EPOCH":"13298","INCLINATION":"53.0526","BSTAR":"0.00012159000000","OBJECT_TYPE":"PAYLOAD","RCS_SIZE":"LARGE","MEAN_ANOMALY":"295.9345","PERIOD":"95.592"},{"MEAN_MOTION_DDOT":"0.0000000000000","OBJECT_ID":"2020-006AE","EPHEMERIS_TYPE":"0","CENTER_NAME":"EARTH","LAUNCH_DATE":"2020-01-29","REF_FRAME":"TEME","TLE_LINE2":"2 45072  53.0548 217.3895 0001467  61.9780 298.1357 15.06397945132919","FILE":"3503181","COUNTRY_CODE":"US","ELEMENT_SET_NO":"999","MEAN_ANOMALY":"298.1357","PERIOD":"95.592","OBJECT_TYPE":"PAYLOAD","RCS_SIZE":"LARGE","INCLINATION":"53.0548","BSTAR":"0.00003800400000","RA_OF_ASC_NODE":"217.3895","SEMIMAJOR_AXIS":"6925.355","REV_AT_EPOCH":"13291","MEAN_MOTION":"15.06397945","EPOCH":"2022-06-26T09:04:24.304512","OBJECT_NAME":"STARLINK-1168","APOAPSIS":"548.236","TIME_SYSTEM":"UTC","ECCENTRICITY":"0.00014670","MEAN_ELEMENT_THEORY":"SGP4","CLASSIFICATION_TYPE":"U","TLE_LINE1":"1 45072U 20006AE  22177.37805908  .00000285  00000-0  38004-4 0  9999","PERIAPSIS":"546.204","SITE":"AFETR","ARG_OF_PERICENTER":"61.9780","DECAY_DATE":null,"NORAD_CAT_ID":"45072","MEAN_MOTION_DOT":"0.00000285","GP_ID":"206892792"},{"EPOCH":"2022-06-26T19:14:47.434560","OBJECT_NAME":"STARLINK-1170","MEAN_MOTION":"15.06401680","ECCENTRICITY":"0.00022260","TIME_SYSTEM":"UTC","APOAPSIS":"548.750","NORAD_CAT_ID":"45073","DECAY_DATE":null,"SITE":"AFETR","PERIAPSIS":"545.667","ARG_OF_PERICENTER":"47.4900","TLE_LINE1":"1 45073U 20006AF  22177.80193790  .00000612  00000-0  59966-4 0  9991","CLASSIFICATION_TYPE":"U","MEAN_ELEMENT_THEORY":"SGP4","GP_ID":"206923874","MEAN_MOTION_DOT":"0.00000612","CENTER_NAME":"EARTH","EPHEMERIS_TYPE":"0","OBJECT_ID":"2020-006AF","MEAN_MOTION_DDOT":"0.0000000000000","ELEMENT_SET_NO":"999","TLE_LINE2":"2 45073  53.0538 215.4696 0002226  47.4900 312.6276 15.06401680132974","COUNTRY_CODE":"US","FILE":"3503441","REF_FRAME":"TEME","LAUNCH_DATE":"2020-01-29","RCS_SIZE":"LARGE","OBJECT_TYPE":"PAYLOAD","PERIOD":"95.592","MEAN_ANOMALY":"312.6276","REV_AT_EPOCH":"13297","SEMIMAJOR_AXIS":"6925.343","RA_OF_ASC_NODE":"215.4696","BSTAR":"0.00005996600000","INCLINATION":"53.0538"}];
